CCSDS_OMM_VERS = 2.0
CREATION_DATE  = 
ORIGINATOR     = 

OBJECT_NAME    = TIANZHOU-10
OBJECT_ID      = 2026-102A
CENTER_NAME    = EARTH
REF_FRAME      = TEME
TIME_SYSTEM    = UTC
MEAN_ELEMENT_THEORY = SGP/SGP4

EPOCH          = 2026-05-22T02:48:59.129856
MEAN_MOTION    = 15.60736689
ECCENTRICITY   = .00074553
INCLINATION    = 41.4679
RA_OF_ASC_NODE = 120.5221
ARG_OF_PERICENTER = 276.8129
MEAN_ANOMALY   = 83.1862

EPHEMERIS_TYPE = 0
CLASSIFICATION_TYPE = U
NORAD_CAT_ID   = 69049
ELEMENT_SET_NO = 999
REV_AT_EPOCH   = 202
BSTAR          = .13455509E-3
MEAN_MOTION_DOT = .112E-3
MEAN_MOTION_DDOT = 0

CCSDS_OMM_VERS = 2.0
CREATION_DATE  = 
ORIGINATOR     = 

OBJECT_NAME    = DRAGON CRS-34
OBJECT_ID      = 2026-107A
CENTER_NAME    = EARTH
REF_FRAME      = TEME
TIME_SYSTEM    = UTC
MEAN_ELEMENT_THEORY = SGP/SGP4

EPOCH          = 2026-05-23T11:41:32.753760
MEAN_MOTION    = 15.49328337
ECCENTRICITY   = .0007523
INCLINATION    = 51.6326
RA_OF_ASC_NODE = 62.3775
ARG_OF_PERICENTER = 89.6569
MEAN_ANOMALY   = 270.5281

EPHEMERIS_TYPE = 0
CLASSIFICATION_TYPE = U
NORAD_CAT_ID   = 69103
ELEMENT_SET_NO = 999
REV_AT_EPOCH   = 56803
BSTAR          = .1293E-3
MEAN_MOTION_DOT = .6763E-4
MEAN_MOTION_DDOT = 0

