TIANZHOU-10             
1 69049U 26102A   26142.11735104  .00011200  00000+0  13456-3 0  9991
2 69049  41.4679 120.5221 0007455 276.8129  83.1862 15.60736689  2023
DRAGON CRS-34           
1 69103U 26107A   26143.48718465  .00006763  00000+0  12930-3 0  9993
2 69103  51.6326  62.3775 0007523  89.6569 270.5281 15.49328337568036
